{"type":"FeatureCollection","features":[{"type":"Feature","geometry":{"type":"MultiPolygon","coordinates":[[[[-46.6907,-21.8376],[-46.6307,-21.7686],[-46.6145,-21.6765],[-46.5646,-21.6787],[-46.5118,-21.5654],[-46.523,-21.5299],[-46.5089,-21.4891],[-46.5191,-21.449],[-46.5765,-21.427],[-46.6161,-21.4303],[-46.6476,-21.3796],[-46.6755,-21.3751],[-46.739,-21.3926],[-46.7647,-21.3601],[-46.7815,-21.3707],[-46.8361,-21.3707],[-46.8421,-21.3891],[-46.9329,-21.425],[-47.013,-21.4191],[-46.9967,-21.3573],[-47.0165,-21.3424],[-47.0442,-21.2674],[-47.0761,-21.2412],[-47.1185,-21.1859],[-47.1176,-21.1532],[-47.133,-21.1332],[-47.1148,-21.1047],[-47.1413,-21.0859],[-47.1479,-21.0355],[-47.1437,-20.9824],[-47.1813,-20.9538],[-47.24,-20.8853],[-47.2145,-20.8272],[-47.2249,-20.8009],[-47.1888,-20.7706],[-47.1862,-20.7314],[-47.1692,-20.7034],[-47.1267,-20.7093],[-47.101,-20.682],[-47.0975,-20.6439],[-47.1233,-20.6127],[-47.1545,-20.5196],[-47.2235,-20.4911],[-47.291,-20.4505],[-47.2935,-20.4187],[-47.2855,-20.4057],[-47.2982,-20.3484],[-47.2767,-20.2916],[-47.2311,-20.2192],[-47.2618,-20.1599],[-47.2964,-20.1459],[-47.3716,-20.0859],[-47.4081,-20.0802],[-47.4403,-20.0488],[-47.4244,-20.0153],[-47.4633,-19.9658],[-47.5492,-19.9938],[-47.5838,-19.9967],[-47.5947,-20.0259],[-47.6397,-20.0472],[-47.6761,-20.0019],[-47.7127,-19.9781],[-47.8509,-19.9898],[-47.8752,-20.0186],[-47.8615,-20.045],[-47.8698,-20.0762],[-47.8994,-20.1257],[-47.9315,-20.1104],[-47.946,-20.0605],[-47.9812,-20.0364],[-48.0011,-20.1013],[-48.0202,-20.124],[-48.0768,-20.1484],[-48.1055,-20.1464],[-48.1786,-20.0962],[-48.2034,-20.0455],[-48.2285,-20.0282],[-48.2534,-20.0779],[-48.2186,-20.1279],[-48.2651,-20.1438],[-48.3154,-20.1138],[-48.3749,-20.1231],[-48.4058,-20.1135],[-48.4911,-20.1381],[-48.5932,-20.1358],[-48.6469,-20.167],[-48.7296,-20.1503],[-48.7811,-20.1639],[-48.8221,-20.1615],[-48.8554,-20.1801],[-48.8534,-20.215],[-48.8871,-20.2753],[-48.8671,-20.3989],[-48.8865,-20.4369],[-48.9042,-20.4387],[-48.963,-20.4031],[-48.972,-20.2078],[-48.986,-20.1708],[-49.0329,-20.1501],[-49.0659,-20.1535],[-49.1207,-20.2705],[-49.1836,-20.3147],[-49.2253,-20.3053],[-49.2597,-20.2588],[-49.2652,-20.2297],[-49.2992,-20.1671],[-49.3073,-20.0603],[-49.2973,-20.0175],[-49.2483,-19.9996],[-49.2501,-19.9693],[-49.2975,-19.9605],[-49.3565,-19.9867],[-49.4538,-19.9781],[-49.4928,-19.9504],[-49.514,-19.9143],[-49.5515,-19.9058],[-49.6344,-19.9319],[-49.7494,-19.9247],[-49.8353,-19.9333],[-49.8537,-19.9465],[-49.9699,-19.92],[-50.0031,-19.9264],[-50.0441,-19.9164],[-50.1062,-19.8743],[-50.1718,-19.8755],[-50.2157,-19.8666],[-50.2452,-19.8768],[-50.3374,-19.8695],[-50.4171,-19.8011],[-50.4693,-19.7799],[-50.5779,-19.8164],[-50.6581,-19.9071],[-50.7836,-19.9372],[-50.886,-19.9904],[-50.9081,-19.9943],[-50.9455,-20.0297],[-50.9691,-20.0364],[-51.0005,-20.0854],[-51.0692,-20.25],[-51.1094,-20.2801],[-51.1608,-20.3052],[-51.2957,-20.3285],[-51.3435,-20.3556],[-51.4188,-20.465],[-51.4492,-20.4828],[-51.5002,-20.5682],[-51.5752,-20.6234],[-51.6033,-20.6617],[-51.6349,-20.7548],[-51.6224,-20.7769],[-51.633,-20.8216],[-51.6151,-20.8861],[-51.6236,-20.9444],[-51.6667,-20.9708],[-51.7137,-20.9715],[-51.7596,-21.0222],[-51.7897,-21.1021],[-51.8236,-21.1268],[-51.8655,-21.1305],[-51.879,-21.1481],[-51.8797,-21.1979],[-51.8485,-21.2666],[-51.8611,-21.3367],[-51.8999,-21.3776],[-51.9287,-21.4558],[-51.9622,-21.4933],[-52.0004,-21.5166],[-52.0571,-21.5036],[-52.0778,-21.5152],[-52.1022,-21.5698],[-52.0689,-21.5981],[-52.0495,-21.6431],[-52.0558,-21.6772],[-52.1038,-21.7461],[-52.1613,-21.7708],[-52.1894,-21.8443],[-52.2484,-21.9023],[-52.275,-21.9149],[-52.319,-21.9721],[-52.3392,-22.0478],[-52.4082,-22.1416],[-52.4877,-22.2172],[-52.5869,-22.2568],[-52.6553,-22.3031],[-52.6951,-22.3146],[-52.7983,-22.3783],[-52.8548,-22.4391],[-52.9986,-22.4932],[-53.0144,-22.5207],[-53.0738,-22.5489],[-53.1079,-22.5955],[-53.1052,-22.6219],[-53.0915,-22.6448],[-53.0385,-22.6184],[-52.9724,-22.5705],[-52.9247,-22.5656],[-52.8584,-22.608],[-52.8154,-22.597],[-52.6971,-22.627],[-52.5893,-22.5661],[-52.5378,-22.616],[-52.4988,-22.6342],[-52.4457,-22.6083],[-52.3805,-22.6265],[-52.3004,-22.6354],[-52.2504,-22.6154],[-52.2281,-22.6425],[-52.2226,-22.6755],[-52.1567,-22.6447],[-52.1523,-22.5692],[-52.1356,-22.5269],[-52.1092,-22.5163],[-51.9405,-22.5673],[-51.8902,-22.6132],[-51.8558,-22.6317],[-51.7716,-22.6141],[-51.733,-22.6286],[-51.7182,-22.669],[-51.6279,-22.6582],[-51.5596,-22.6972],[-51.475,-22.6792],[-51.4464,-22.653],[-51.402,-22.6679],[-51.3736,-22.6581],[-51.2982,-22.6735],[-51.2652,-22.6677],[-51.2137,-22.7237],[-51.1279,-22.76],[-51.0576,-22.7661],[-51.0044,-22.7937],[-50.9787,-22.7826],[-50.9277,-22.7977],[-50.8953,-22.7943],[-50.8424,-22.8314],[-50.7931,-22.9051],[-50.7959,-22.9512],[-50.7098,-22.9534],[-50.6821,-22.9062],[-50.6373,-22.9069],[-50.6038,-22.9232],[-50.5772,-22.904],[-50.53,-22.9191],[-50.5268,-22.9348],[-50.4257,-22.9442],[-50.4164,-22.9128],[-50.3592,-22.9161],[-50.3402,-22.9481],[-50.2756,-22.9316],[-50.2432,-22.951],[-50.2039,-22.9528],[-50.1331,-22.9399],[-50.0528,-22.9055],[-50.0146,-22.9113],[-49.9862,-22.8975],[-49.9614,-22.9309],[-49.9725,-22.9585],[-49.9545,-22.9784],[-49.9017,-22.9993],[-49.9116,-23.0511],[-49.8674,-23.0717],[-49.8337,-23.0659],[-49.7892,-23.1033],[-49.7256,-23.1094],[-49.7165,-23.1484],[-49.6777,-23.1749],[-49.6538,-23.212],[-49.6271,-23.2818],[-49.6217,-23.3319],[-49.6379,-23.3495],[-49.5954,-23.3671],[-49.6025,-23.4085],[-49.5818,-23.429],[-49.6214,-23.4933],[-49.6242,-23.5233],[-49.6002,-23.5356],[-49.6028,-23.584],[-49.621,-23.6111],[-49.6021,-23.6521],[-49.5492,-23.704],[-49.5673,-23.7368],[-49.5597,-23.7936],[-49.5727,-23.827],[-49.608,-23.8394],[-49.587,-23.8889],[-49.5358,-23.9282],[-49.5223,-23.9166],[-49.4923,-23.9934],[-49.4575,-24.0495],[-49.4298,-24.0687],[-49.4087,-24.1069],[-49.3366,-24.1376],[-49.3507,-24.2208],[-49.3054,-24.2514],[-49.2869,-24.3026],[-49.2011,-24.3451],[-49.2535,-24.405],[-49.2453,-24.4651],[-49.2957,-24.5003],[-49.2799,-24.5359],[-49.316,-24.5555],[-49.3036,-24.5969],[-49.312,-24.6635],[-49.2781,-24.693],[-49.2079,-24.7009],[-49.1857,-24.6728],[-49.1579,-24.6719],[-49.1116,-24.6884],[-49.0103,-24.6544],[-48.9622,-24.6742],[-48.8404,-24.665],[-48.7771,-24.6957],[-48.7038,-24.6804],[-48.675,-24.7018],[-48.6166,-24.6687],[-48.5722,-24.6906],[-48.5381,-24.7262],[-48.5019,-24.746],[-48.5183,-24.781],[-48.5558,-24.8062],[-48.5677,-24.8488],[-48.5497,-24.8675],[-48.5664,-24.9168],[-48.5674,-24.9723],[-48.5981,-25.0033],[-48.5796,-25.0531],[-48.5563,-25.0843],[-48.5302,-25.1008],[-48.4809,-25.037],[-48.474,-25.0126],[-48.4119,-24.9804],[-48.3799,-24.9959],[-48.3512,-25.0365],[-48.2846,-25.0392],[-48.2696,-24.9975],[-48.2397,-24.9914],[-48.2086,-25.0319],[-48.2161,-25.0767],[-48.1816,-25.1338],[-48.1585,-25.1499],[-48.1825,-25.205],[-48.113,-25.2509],[-48.0235,-25.2309],[-48.0968,-25.2972],[-48.0961,-25.3089],[-48.0469,-25.2585],[-47.9238,-25.1605],[-47.908,-25.1181],[-47.9095,-25.0529],[-47.8429,-24.9766],[-47.623,-24.7991],[-47.245,-24.574],[-47.1447,-24.4923],[-47.0036,-24.409],[-47.0182,-24.3788],[-46.9939,-24.3254],[-46.8446,-24.2184],[-46.6044,-24.0897],[-46.493,-24.0385],[-46.4156,-24.0157],[-46.3551,-23.9711],[-46.3063,-23.9931],[-46.3201,-24.0243],[-46.2397,-23.9908],[-46.1978,-23.9948],[-46.1656,-23.9442],[-46.1332,-23.8565],[-46.0887,-23.8221],[-46.0388,-23.8155],[-45.9726,-23.7854],[-45.8424,-23.7582],[-45.7925,-23.7693],[-45.7633,-23.763],[-45.6641,-23.779],[-45.624,-23.7958],[-45.5551,-23.795],[-45.5024,-23.8412],[-45.4651,-23.8192],[-45.4309,-23.8325],[-45.3963,-23.8081],[-45.3969,-23.7806],[-45.427,-23.7084],[-45.4283,-23.6579],[-45.4066,-23.6239],[-45.3569,-23.6227],[-45.3114,-23.5757],[-45.2767,-23.5783],[-45.2442,-23.5937],[-45.2125,-23.5662],[-45.2194,-23.5289],[-45.1592,-23.5385],[-45.1739,-23.4963],[-45.0715,-23.4972],[-45.0539,-23.4167],[-45.015,-23.4187],[-44.9771,-23.4003],[-44.9416,-23.357],[-44.9057,-23.334],[-44.8369,-23.3696],[-44.8402,-23.3882],[-44.7506,-23.366],[-44.7242,-23.3676],[-44.7777,-23.3377],[-44.7874,-23.2991],[-44.8247,-23.2916],[-44.828,-23.2706],[-44.8893,-23.2266],[-44.8747,-23.1847],[-44.8244,-23.1627],[-44.8106,-23.1148],[-44.8188,-23.0915],[-44.8022,-23.0488],[-44.7919,-22.9819],[-44.7648,-22.9833],[-44.7435,-22.947],[-44.6387,-22.9142],[-44.6071,-22.8853],[-44.5552,-22.8881],[-44.4946,-22.8468],[-44.4669,-22.885],[-44.4231,-22.8505],[-44.3812,-22.8584],[-44.2676,-22.829],[-44.2402,-22.7914],[-44.2576,-22.767],[-44.227,-22.7337],[-44.1739,-22.7021],[-44.1656,-22.6734],[-44.1843,-22.6373],[-44.2456,-22.6064],[-44.3421,-22.5893],[-44.3609,-22.6118],[-44.3824,-22.5735],[-44.4058,-22.5991],[-44.4662,-22.6157],[-44.5107,-22.6401],[-44.546,-22.607],[-44.6459,-22.6039],[-44.6444,-22.5556],[-44.6679,-22.5541],[-44.7553,-22.4153],[-44.8094,-22.4056],[-44.8439,-22.4278],[-44.8897,-22.4321],[-44.9396,-22.4526],[-44.9659,-22.4752],[-44.9907,-22.4665],[-45.0549,-22.4705],[-45.1244,-22.4972],[-45.1772,-22.5467],[-45.2545,-22.5816],[-45.2691,-22.6114],[-45.333,-22.6176],[-45.4,-22.6537],[-45.4204,-22.6212],[-45.4804,-22.5905],[-45.4888,-22.6288],[-45.5249,-22.6469],[-45.5804,-22.6529],[-45.5599,-22.6276],[-45.5765,-22.6017],[-45.6181,-22.6379],[-45.6662,-22.6512],[-45.6811,-22.6363],[-45.6599,-22.599],[-45.6787,-22.5733],[-45.7268,-22.587],[-45.73,-22.6187],[-45.698,-22.6498],[-45.7428,-22.6592],[-45.7879,-22.6934],[-45.8116,-22.6987],[-45.8051,-22.7373],[-45.7326,-22.722],[-45.7122,-22.7698],[-45.7709,-22.8059],[-45.768,-22.836],[-45.8481,-22.8378],[-45.871,-22.8715],[-45.909,-22.8296],[-45.9565,-22.8498],[-46.0085,-22.8895],[-46.0507,-22.897],[-46.0952,-22.8944],[-46.1391,-22.9228],[-46.1413,-22.8681],[-46.1922,-22.8652],[-46.2574,-22.8909],[-46.279,-22.8783],[-46.3449,-22.9052],[-46.3763,-22.8771],[-46.3745,-22.8202],[-46.3617,-22.7889],[-46.3326,-22.7661],[-46.3728,-22.7468],[-46.4527,-22.7276],[-46.4731,-22.705],[-46.4691,-22.6732],[-46.3931,-22.663],[-46.4243,-22.5994],[-46.4146,-22.5579],[-46.4565,-22.5217],[-46.5421,-22.4944],[-46.5548,-22.4466],[-46.6163,-22.4386],[-46.6665,-22.4151],[-46.6609,-22.366],[-46.7233,-22.3066],[-46.7069,-22.2579],[-46.6803,-22.2165],[-46.6718,-22.1783],[-46.6456,-22.1806],[-46.613,-22.1503],[-46.6242,-22.1085],[-46.6468,-22.0919],[-46.7001,-22.0951],[-46.7195,-22.0833],[-46.6648,-22.0689],[-46.6854,-22.0374],[-46.6179,-21.995],[-46.6428,-21.9766],[-46.6738,-21.9111],[-46.6475,-21.8805],[-46.666,-21.8484],[-46.6907,-21.8376]]],[[[-45.2904,-23.8691],[-45.2423,-23.8108],[-45.2327,-23.785],[-45.2633,-23.7415],[-45.34,-23.7275],[-45.3657,-23.809],[-45.4604,-23.8902],[-45.4443,-23.9341],[-45.4079,-23.9385],[-45.303,-23.9089],[-45.269,-23.965],[-45.2334,-23.948],[-45.2376,-23.9091],[-45.2904,-23.8691]]]]},"properties":{"codarea":"35"}}]}